<?xml version="1.0" encoding="UTF-8"?>
<ndm xmlns:xsi="http://www.w3.org/2001/XMLSchema-instance" xsi:noNamespaceSchemaLocation="https://sanaregistry.org/r/ndmxml_unqualified/ndmxml-2.0.0-master-2.0.xsd">
<omm id="CCSDS_OMM_VERS" version="2.0">
<header><CREATION_DATE/><ORIGINATOR/></header><body><segment><metadata><OBJECT_NAME>KUIPER-00053</OBJECT_NAME><OBJECT_ID>2025-134P</OBJECT_ID><CENTER_NAME>EARTH</CENTER_NAME><REF_FRAME>TEME</REF_FRAME><TIME_SYSTEM>UTC</TIME_SYSTEM><MEAN_ELEMENT_THEORY>SGP4</MEAN_ELEMENT_THEORY></metadata><data><meanElements><EPOCH>2025-12-17T01:14:58.280352</EPOCH><MEAN_MOTION>14.80052320</MEAN_MOTION><ECCENTRICITY>.00020313</ECCENTRICITY><INCLINATION>51.9001</INCLINATION><RA_OF_ASC_NODE>228.5112</RA_OF_ASC_NODE><ARG_OF_PERICENTER>70.4657</ARG_OF_PERICENTER><MEAN_ANOMALY>289.6524</MEAN_ANOMALY></meanElements><tleParameters><EPHEMERIS_TYPE>0</EPHEMERIS_TYPE><CLASSIFICATION_TYPE>U</CLASSIFICATION_TYPE><NORAD_CAT_ID>64513</NORAD_CAT_ID><ELEMENT_SET_NO>999</ELEMENT_SET_NO><REV_AT_EPOCH>2797</REV_AT_EPOCH><BSTAR>.2873586E-3</BSTAR><MEAN_MOTION_DOT>.1976E-4</MEAN_MOTION_DOT><MEAN_MOTION_DDOT>0</MEAN_MOTION_DDOT></tleParameters></data></segment></body></omm>
<omm id="CCSDS_OMM_VERS" version="2.0">
<header><CREATION_DATE/><ORIGINATOR/></header><body><segment><metadata><OBJECT_NAME>KUIPER-00054</OBJECT_NAME><OBJECT_ID>2025-134Q</OBJECT_ID><CENTER_NAME>EARTH</CENTER_NAME><REF_FRAME>TEME</REF_FRAME><TIME_SYSTEM>UTC</TIME_SYSTEM><MEAN_ELEMENT_THEORY>SGP4</MEAN_ELEMENT_THEORY></metadata><data><meanElements><EPOCH>2025-12-17T01:22:09.626304</EPOCH><MEAN_MOTION>14.79956686</MEAN_MOTION><ECCENTRICITY>.00057522</ECCENTRICITY><INCLINATION>51.8983</INCLINATION><RA_OF_ASC_NODE>223.4765</RA_OF_ASC_NODE><ARG_OF_PERICENTER>44.4541</ARG_OF_PERICENTER><MEAN_ANOMALY>315.6882</MEAN_ANOMALY></meanElements><tleParameters><EPHEMERIS_TYPE>0</EPHEMERIS_TYPE><CLASSIFICATION_TYPE>U</CLASSIFICATION_TYPE><NORAD_CAT_ID>64514</NORAD_CAT_ID><ELEMENT_SET_NO>999</ELEMENT_SET_NO><REV_AT_EPOCH>2804</REV_AT_EPOCH><BSTAR>.367843E-3</BSTAR><MEAN_MOTION_DOT>.2585E-4</MEAN_MOTION_DOT><MEAN_MOTION_DDOT>0</MEAN_MOTION_DDOT></tleParameters></data></segment></body></omm>
<omm id="CCSDS_OMM_VERS" version="2.0">
<header><CREATION_DATE/><ORIGINATOR/></header><body><segment><metadata><OBJECT_NAME>KUIPER-00055</OBJECT_NAME><OBJECT_ID>2025-134R</OBJECT_ID><CENTER_NAME>EARTH</CENTER_NAME><REF_FRAME>TEME</REF_FRAME><TIME_SYSTEM>UTC</TIME_SYSTEM><MEAN_ELEMENT_THEORY>SGP4</MEAN_ELEMENT_THEORY></metadata><data><meanElements><EPOCH>2025-12-17T00:22:07.932576</EPOCH><MEAN_MOTION>15.17992190</MEAN_MOTION><ECCENTRICITY>.00025488</ECCENTRICITY><INCLINATION>51.8895</INCLINATION><RA_OF_ASC_NODE>208.4461</RA_OF_ASC_NODE><ARG_OF_PERICENTER>192.6632</ARG_OF_PERICENTER><MEAN_ANOMALY>167.4283</MEAN_ANOMALY></meanElements><tleParameters><EPHEMERIS_TYPE>0</EPHEMERIS_TYPE><CLASSIFICATION_TYPE>U</CLASSIFICATION_TYPE><NORAD_CAT_ID>64515</NORAD_CAT_ID><ELEMENT_SET_NO>999</ELEMENT_SET_NO><REV_AT_EPOCH>2825</REV_AT_EPOCH><BSTAR>.55091133E-3</BSTAR><MEAN_MOTION_DOT>.11046E-3</MEAN_MOTION_DOT><MEAN_MOTION_DDOT>0</MEAN_MOTION_DDOT></tleParameters></data></segment></body></omm>
<omm id="CCSDS_OMM_VERS" version="2.0">
<header><CREATION_DATE/><ORIGINATOR/></header><body><segment><metadata><OBJECT_NAME>KUIPER-00056</OBJECT_NAME><OBJECT_ID>2025-134S</OBJECT_ID><CENTER_NAME>EARTH</CENTER_NAME><REF_FRAME>TEME</REF_FRAME><TIME_SYSTEM>UTC</TIME_SYSTEM><MEAN_ELEMENT_THEORY>SGP4</MEAN_ELEMENT_THEORY></metadata><data><meanElements><EPOCH>2025-12-17T01:12:26.378784</EPOCH><MEAN_MOTION>14.79930734</MEAN_MOTION><ECCENTRICITY>.0003277</ECCENTRICITY><INCLINATION>51.9021</INCLINATION><RA_OF_ASC_NODE>229.5517</RA_OF_ASC_NODE><ARG_OF_PERICENTER>50.3618</ARG_OF_PERICENTER><MEAN_ANOMALY>309.7634</MEAN_ANOMALY></meanElements><tleParameters><EPHEMERIS_TYPE>0</EPHEMERIS_TYPE><CLASSIFICATION_TYPE>U</CLASSIFICATION_TYPE><NORAD_CAT_ID>64516</NORAD_CAT_ID><ELEMENT_SET_NO>999</ELEMENT_SET_NO><REV_AT_EPOCH>2796</REV_AT_EPOCH><BSTAR>-.42735E-3</BSTAR><MEAN_MOTION_DOT>-.3478E-4</MEAN_MOTION_DOT><MEAN_MOTION_DDOT>0</MEAN_MOTION_DDOT></tleParameters></data></segment></body></omm>
<omm id="CCSDS_OMM_VERS" version="2.0">
<header><CREATION_DATE/><ORIGINATOR/></header><body><segment><metadata><OBJECT_NAME>KUIPER-00057</OBJECT_NAME><OBJECT_ID>2025-134T</OBJECT_ID><CENTER_NAME>EARTH</CENTER_NAME><REF_FRAME>TEME</REF_FRAME><TIME_SYSTEM>UTC</TIME_SYSTEM><MEAN_ELEMENT_THEORY>SGP4</MEAN_ELEMENT_THEORY></metadata><data><meanElements><EPOCH>2025-12-17T02:38:02.685984</EPOCH><MEAN_MOTION>14.79929938</MEAN_MOTION><ECCENTRICITY>.00095061</ECCENTRICITY><INCLINATION>51.8992</INCLINATION><RA_OF_ASC_NODE>236.7780</RA_OF_ASC_NODE><ARG_OF_PERICENTER>8.6337</ARG_OF_PERICENTER><MEAN_ANOMALY>351.4788</MEAN_ANOMALY></meanElements><tleParameters><EPHEMERIS_TYPE>0</EPHEMERIS_TYPE><CLASSIFICATION_TYPE>U</CLASSIFICATION_TYPE><NORAD_CAT_ID>64517</NORAD_CAT_ID><ELEMENT_SET_NO>999</ELEMENT_SET_NO><REV_AT_EPOCH>2786</REV_AT_EPOCH><BSTAR>.48289271E-3</BSTAR><MEAN_MOTION_DOT>.3462E-4</MEAN_MOTION_DOT><MEAN_MOTION_DDOT>0</MEAN_MOTION_DDOT></tleParameters></data></segment></body></omm>
<omm id="CCSDS_OMM_VERS" version="2.0">
<header><CREATION_DATE/><ORIGINATOR/></header><body><segment><metadata><OBJECT_NAME>KUIPER-00058</OBJECT_NAME><OBJECT_ID>2025-134U</OBJECT_ID><CENTER_NAME>EARTH</CENTER_NAME><REF_FRAME>TEME</REF_FRAME><TIME_SYSTEM>UTC</TIME_SYSTEM><MEAN_ELEMENT_THEORY>SGP4</MEAN_ELEMENT_THEORY></metadata><data><meanElements><EPOCH>2025-12-17T02:48:13.870944</EPOCH><MEAN_MOTION>14.79924114</MEAN_MOTION><ECCENTRICITY>.00047966</ECCENTRICITY><INCLINATION>51.8992</INCLINATION><RA_OF_ASC_NODE>230.6648</RA_OF_ASC_NODE><ARG_OF_PERICENTER>56.0382</ARG_OF_PERICENTER><MEAN_ANOMALY>304.1036</MEAN_ANOMALY></meanElements><tleParameters><EPHEMERIS_TYPE>0</EPHEMERIS_TYPE><CLASSIFICATION_TYPE>U</CLASSIFICATION_TYPE><NORAD_CAT_ID>64518</NORAD_CAT_ID><ELEMENT_SET_NO>999</ELEMENT_SET_NO><REV_AT_EPOCH>2795</REV_AT_EPOCH><BSTAR>-.10648778E-3</BSTAR><MEAN_MOTION_DOT>-.1034E-4</MEAN_MOTION_DOT><MEAN_MOTION_DDOT>0</MEAN_MOTION_DDOT></tleParameters></data></segment></body></omm>
<omm id="CCSDS_OMM_VERS" version="2.0">
<header><CREATION_DATE/><ORIGINATOR/></header><body><segment><metadata><OBJECT_NAME>KUIPER-00059</OBJECT_NAME><OBJECT_ID>2025-134V</OBJECT_ID><CENTER_NAME>EARTH</CENTER_NAME><REF_FRAME>TEME</REF_FRAME><TIME_SYSTEM>UTC</TIME_SYSTEM><MEAN_ELEMENT_THEORY>SGP4</MEAN_ELEMENT_THEORY></metadata><data><meanElements><EPOCH>2025-12-17T01:18:26.533728</EPOCH><MEAN_MOTION>14.79919605</MEAN_MOTION><ECCENTRICITY>.00039053</ECCENTRICITY><INCLINATION>51.8992</INCLINATION><RA_OF_ASC_NODE>225.9955</RA_OF_ASC_NODE><ARG_OF_PERICENTER>176.3765</ARG_OF_PERICENTER><MEAN_ANOMALY>183.7226</MEAN_ANOMALY></meanElements><tleParameters><EPHEMERIS_TYPE>0</EPHEMERIS_TYPE><CLASSIFICATION_TYPE>U</CLASSIFICATION_TYPE><NORAD_CAT_ID>64519</NORAD_CAT_ID><ELEMENT_SET_NO>999</ELEMENT_SET_NO><REV_AT_EPOCH>2801</REV_AT_EPOCH><BSTAR>.8600743E-3</BSTAR><MEAN_MOTION_DOT>.6339E-4</MEAN_MOTION_DOT><MEAN_MOTION_DDOT>0</MEAN_MOTION_DDOT></tleParameters></data></segment></body></omm>
<omm id="CCSDS_OMM_VERS" version="2.0">
<header><CREATION_DATE/><ORIGINATOR/></header><body><segment><metadata><OBJECT_NAME>KUIPER-00060</OBJECT_NAME><OBJECT_ID>2025-134W</OBJECT_ID><CENTER_NAME>EARTH</CENTER_NAME><REF_FRAME>TEME</REF_FRAME><TIME_SYSTEM>UTC</TIME_SYSTEM><MEAN_ELEMENT_THEORY>SGP4</MEAN_ELEMENT_THEORY></metadata><data><meanElements><EPOCH>2025-12-16T20:24:45.163872</EPOCH><MEAN_MOTION>14.79908077</MEAN_MOTION><ECCENTRICITY>.00038656</ECCENTRICITY><INCLINATION>51.9017</INCLINATION><RA_OF_ASC_NODE>227.9384</RA_OF_ASC_NODE><ARG_OF_PERICENTER>87.7429</ARG_OF_PERICENTER><MEAN_ANOMALY>272.3976</MEAN_ANOMALY></meanElements><tleParameters><EPHEMERIS_TYPE>0</EPHEMERIS_TYPE><CLASSIFICATION_TYPE>U</CLASSIFICATION_TYPE><NORAD_CAT_ID>64520</NORAD_CAT_ID><ELEMENT_SET_NO>999</ELEMENT_SET_NO><REV_AT_EPOCH>2795</REV_AT_EPOCH><BSTAR>-.31862013E-3</BSTAR><MEAN_MOTION_DOT>-.2649E-4</MEAN_MOTION_DOT><MEAN_MOTION_DDOT>0</MEAN_MOTION_DDOT></tleParameters></data></segment></body></omm>

</ndm>
