KUIPER-00053            
1 64513U 25134P   25351.05206343  .00001976  00000+0  28736-3 0  9994
2 64513  51.9001 228.5112 0002031  70.4657 289.6524 14.80052320 27979
KUIPER-00054            
1 64514U 25134Q   25351.05705586  .00002585  00000+0  36784-3 0  9997
2 64514  51.8983 223.4765 0005752  44.4541 315.6882 14.79956686 28044
KUIPER-00055            
1 64515U 25134R   25351.01536959  .00011046  00000+0  55091-3 0  9994
2 64515  51.8895 208.4461 0002548 192.6632 167.4283 15.17992190 28254
KUIPER-00056            
1 64516U 25134S   25351.05030531 -.00003478  00000+0 -42735-3 0  9997
2 64516  51.9021 229.5517 0003277  50.3618 309.7634 14.79930734 27968
KUIPER-00057            
1 64517U 25134T   25351.10975331  .00003462  00000+0  48289-3 0  9991
2 64517  51.8992 236.7780 0009506   8.6337 351.4788 14.79929938 27869
KUIPER-00058            
1 64518U 25134U   25351.11682721 -.00001034  00000+0 -10649-3 0  9995
2 64518  51.8992 230.6648 0004796  56.0382 304.1036 14.79924114 27951
KUIPER-00059            
1 64519U 25134V   25351.05447377  .00006339  00000+0  86007-3 0  9997
2 64519  51.8992 225.9955 0003905 176.3765 183.7226 14.79919605 28011
KUIPER-00060            
1 64520U 25134W   25350.85052273 -.00002649  00000+0 -31862-3 0  9994
2 64520  51.9017 227.9384 0003865  87.7429 272.3976 14.79908077 27957
